PTD-R (TYVAK-0127)      
1 60523U 24149BH  26068.81355855  .00144621  00000+0  12021-2 0  9993
2 60523  97.3759 162.0693 0004267 248.5856 111.4951 15.69700541 87692
STARLINK-11423 [DTC]    
1 61950U 24209M   26068.21701554  .00205215  00000+0  16548-2 0  9995
2 61950  53.1569  13.5943 0001596  58.2082 301.9091 15.69743555 76649
